[{"OBJECT_NAME":"NEXSAT-1","OBJECT_ID":"2024-024E","EPOCH":"2026-03-09T22:47:24.778176","MEAN_MOTION":15.32166372,"ECCENTRICITY":0.00099795,"INCLINATION":97.3124,"RA_OF_ASC_NODE":144.1918,"ARG_OF_PERICENTER":108.5709,"MEAN_ANOMALY":251.6617,"EPHEMERIS_TYPE":0,"CLASSIFICATION_TYPE":"U","NORAD_CAT_ID":58921,"ELEMENT_SET_NO":999,"REV_AT_EPOCH":11669,"BSTAR":0.00031433612,"MEAN_MOTION_DOT":9.702e-5,"MEAN_MOTION_DDOT":0},{"OBJECT_NAME":"STARLINK-34063","OBJECT_ID":"2025-113R","EPOCH":"2026-03-09T08:32:24.599328","MEAN_MOTION":15.30195889,"ECCENTRICITY":0.00011935,"INCLINATION":53.1578,"RA_OF_ASC_NODE":92.7048,"ARG_OF_PERICENTER":90.9557,"MEAN_ANOMALY":269.158,"EPHEMERIS_TYPE":0,"CLASSIFICATION_TYPE":"U","NORAD_CAT_ID":64185,"ELEMENT_SET_NO":999,"REV_AT_EPOCH":4501,"BSTAR":0.00049126006,"MEAN_MOTION_DOT":0.00014217,"MEAN_MOTION_DDOT":0}]
